STARLINK-35962          
1 66518U 25265C   26087.61012342  .00033003  00000+0  12028-2 0  9991
2 66518  43.0026 171.3803 0001426 263.2520  96.8169 15.27598056 20008
STARLINK-35931          
1 66519U 25265D   26087.65880710  .00020548  00000+0  75398-3 0  9998
2 66519  42.9964 170.8839 0001207 284.2267  75.8450 15.27586764 20013
STARLINK-35952          
1 66520U 25265E   26087.60242435  .00023093  00000+0  84640-3 0  9999
2 66520  42.9983 171.3258 0001571 263.3262  96.7410 15.27567311 20008
STARLINK-35915          
1 66521U 25265F   26087.65751822  .00037031  00000+0  13472-2 0  9991
2 66521  43.0004 170.8754 0001403 275.9175  84.1517 15.27609780 20013
STARLINK-35946          
1 66522U 25265G   26087.60755377  .00012516  00000+0  46337-3 0  9994
2 66522  43.0021 171.3571 0001034 273.6404  86.4330 15.27594092 20002
STARLINK-35969          
1 66523U 25265H   26087.64852741  .00029933  00000+0  10924-2 0  9995
2 66523  42.9979 170.8018 0001339 285.9883  74.0821 15.27592804 20016
STARLINK-35687          
1 66524U 25265J   26087.61655208  .00021345  00000+0  78262-3 0  9991
2 66524  43.0043 171.4294 0001098 259.0678 101.0050 15.27593249 20008
STARLINK-35975          
1 66525U 25265K   26087.64980899  .00040748  00000+0  14804-2 0  9991
2 66525  43.0003 170.8170 0001336 266.1095  93.9604 15.27617543 20017
STARLINK-35932          
1 66526U 25265L   26087.58185358  .00027758  00000+0  10135-2 0  9991
2 66526  43.0021 171.1627 0001351 263.0420  97.0278 15.27608714 20005
STARLINK-35935          
1 66527U 25265M   26087.66651346  .00028404  00000+0  10361-2 0  9996
2 66527  43.0021 170.9408 0001432 283.9505  76.1188 15.27630474 20012
STARLINK-35928          
1 66528U 25265N   26087.24849629  .00035781  00000+0  13029-2 0  9994
2 66528  42.9989 172.9571 0001366 255.5958 104.4742 15.27595651 19959
STARLINK-35933          
1 66529U 25265P   26087.67809337  .00030858  00000+0  11247-2 0  9994
2 66529  43.0039 171.0320 0001701 283.1662  76.9000 15.27623196 20017
STARLINK-35961          
1 66530U 25265Q   26087.59855762  .00021940  00000+0  80402-3 0  9992
2 66530  43.0027 171.2952 0001082 265.8960  94.1768 15.27596457 20000
STARLINK-35960          
1 66531U 25265R   26087.56258130  .00039221  00000+0  14250-2 0  9994
2 66531  43.0034 171.0218 0002060 284.0518  76.0105 15.27631267 20004
STARLINK-35914          
1 66532U 25265S   26087.59984129  .00043097  00000+0  15649-2 0  9991
2 66532  43.0029 171.3020 0001247 269.4502  90.6207 15.27613950 20003
STARLINK-35707          
1 66533U 25265T   26087.71904795  .00024313  00000+0  88943-3 0  9995
2 66533  42.9973 170.4726 0001279 270.2917  89.7788 15.27605830 20021
