[{"OBJECT_NAME":"STARLINK-35962","OBJECT_ID":"2025-265C","EPOCH":"2026-03-28T14:38:34.663488","MEAN_MOTION":15.27598056,"ECCENTRICITY":0.0001426,"INCLINATION":43.0026,"RA_OF_ASC_NODE":171.3803,"ARG_OF_PERICENTER":263.252,"MEAN_ANOMALY":96.8169,"EPHEMERIS_TYPE":0,"CLASSIFICATION_TYPE":"U","NORAD_CAT_ID":66518,"ELEMENT_SET_NO":999,"REV_AT_EPOCH":2000,"BSTAR":0.0012028,"MEAN_MOTION_DOT":0.00033003,"MEAN_MOTION_DDOT":0},{"OBJECT_NAME":"STARLINK-35931","OBJECT_ID":"2025-265D","EPOCH":"2026-03-28T15:48:40.933440","MEAN_MOTION":15.27586764,"ECCENTRICITY":0.0001207,"INCLINATION":42.9964,"RA_OF_ASC_NODE":170.8839,"ARG_OF_PERICENTER":284.2267,"MEAN_ANOMALY":75.845,"EPHEMERIS_TYPE":0,"CLASSIFICATION_TYPE":"U","NORAD_CAT_ID":66519,"ELEMENT_SET_NO":999,"REV_AT_EPOCH":2001,"BSTAR":0.00075398,"MEAN_MOTION_DOT":0.00020548,"MEAN_MOTION_DDOT":0},{"OBJECT_NAME":"STARLINK-35952","OBJECT_ID":"2025-265E","EPOCH":"2026-03-28T14:27:29.463840","MEAN_MOTION":15.27567311,"ECCENTRICITY":0.0001571,"INCLINATION":42.9983,"RA_OF_ASC_NODE":171.3258,"ARG_OF_PERICENTER":263.3262,"MEAN_ANOMALY":96.741,"EPHEMERIS_TYPE":0,"CLASSIFICATION_TYPE":"U","NORAD_CAT_ID":66520,"ELEMENT_SET_NO":999,"REV_AT_EPOCH":2000,"BSTAR":0.0008464,"MEAN_MOTION_DOT":0.00023093,"MEAN_MOTION_DDOT":0},{"OBJECT_NAME":"STARLINK-35915","OBJECT_ID":"2025-265F","EPOCH":"2026-03-28T15:46:49.574208","MEAN_MOTION":15.2760978,"ECCENTRICITY":0.0001403,"INCLINATION":43.0004,"RA_OF_ASC_NODE":170.8754,"ARG_OF_PERICENTER":275.9175,"MEAN_ANOMALY":84.1517,"EPHEMERIS_TYPE":0,"CLASSIFICATION_TYPE":"U","NORAD_CAT_ID":66521,"ELEMENT_SET_NO":999,"REV_AT_EPOCH":2001,"BSTAR":0.0013472,"MEAN_MOTION_DOT":0.00037031,"MEAN_MOTION_DDOT":0},{"OBJECT_NAME":"STARLINK-35946","OBJECT_ID":"2025-265G","EPOCH":"2026-03-28T14:34:52.645728","MEAN_MOTION":15.27594092,"ECCENTRICITY":0.0001034,"INCLINATION":43.0021,"RA_OF_ASC_NODE":171.3571,"ARG_OF_PERICENTER":273.6404,"MEAN_ANOMALY":86.433,"EPHEMERIS_TYPE":0,"CLASSIFICATION_TYPE":"U","NORAD_CAT_ID":66522,"ELEMENT_SET_NO":999,"REV_AT_EPOCH":2000,"BSTAR":0.00046337,"MEAN_MOTION_DOT":0.00012516,"MEAN_MOTION_DDOT":0},{"OBJECT_NAME":"STARLINK-35969","OBJECT_ID":"2025-265H","EPOCH":"2026-03-28T15:33:52.768224","MEAN_MOTION":15.27592804,"ECCENTRICITY":0.0001339,"INCLINATION":42.9979,"RA_OF_ASC_NODE":170.8018,"ARG_OF_PERICENTER":285.9883,"MEAN_ANOMALY":74.0821,"EPHEMERIS_TYPE":0,"CLASSIFICATION_TYPE":"U","NORAD_CAT_ID":66523,"ELEMENT_SET_NO":999,"REV_AT_EPOCH":2001,"BSTAR":0.0010924,"MEAN_MOTION_DOT":0.00029933,"MEAN_MOTION_DDOT":0},{"OBJECT_NAME":"STARLINK-35687","OBJECT_ID":"2025-265J","EPOCH":"2026-03-28T14:47:50.099712","MEAN_MOTION":15.27593249,"ECCENTRICITY":0.0001098,"INCLINATION":43.0043,"RA_OF_ASC_NODE":171.4294,"ARG_OF_PERICENTER":259.0678,"MEAN_ANOMALY":101.005,"EPHEMERIS_TYPE":0,"CLASSIFICATION_TYPE":"U","NORAD_CAT_ID":66524,"ELEMENT_SET_NO":999,"REV_AT_EPOCH":2000,"BSTAR":0.00078262,"MEAN_MOTION_DOT":0.00021345,"MEAN_MOTION_DDOT":0},{"OBJECT_NAME":"STARLINK-35975","OBJECT_ID":"2025-265K","EPOCH":"2026-03-28T15:35:43.496736","MEAN_MOTION":15.27617543,"ECCENTRICITY":0.0001336,"INCLINATION":43.0003,"RA_OF_ASC_NODE":170.817,"ARG_OF_PERICENTER":266.1095,"MEAN_ANOMALY":93.9604,"EPHEMERIS_TYPE":0,"CLASSIFICATION_TYPE":"U","NORAD_CAT_ID":66525,"ELEMENT_SET_NO":999,"REV_AT_EPOCH":2001,"BSTAR":0.0014804,"MEAN_MOTION_DOT":0.00040748,"MEAN_MOTION_DDOT":0},{"OBJECT_NAME":"STARLINK-35932","OBJECT_ID":"2025-265L","EPOCH":"2026-03-28T13:57:52.149312","MEAN_MOTION":15.27608714,"ECCENTRICITY":0.0001351,"INCLINATION":43.0021,"RA_OF_ASC_NODE":171.1627,"ARG_OF_PERICENTER":263.042,"MEAN_ANOMALY":97.0278,"EPHEMERIS_TYPE":0,"CLASSIFICATION_TYPE":"U","NORAD_CAT_ID":66526,"ELEMENT_SET_NO":999,"REV_AT_EPOCH":2000,"BSTAR":0.0010135,"MEAN_MOTION_DOT":0.00027758,"MEAN_MOTION_DDOT":0},{"OBJECT_NAME":"STARLINK-35935","OBJECT_ID":"2025-265M","EPOCH":"2026-03-28T15:59:46.762944","MEAN_MOTION":15.27630474,"ECCENTRICITY":0.0001432,"INCLINATION":43.0021,"RA_OF_ASC_NODE":170.9408,"ARG_OF_PERICENTER":283.9505,"MEAN_ANOMALY":76.1188,"EPHEMERIS_TYPE":0,"CLASSIFICATION_TYPE":"U","NORAD_CAT_ID":66527,"ELEMENT_SET_NO":999,"REV_AT_EPOCH":2001,"BSTAR":0.0010361,"MEAN_MOTION_DOT":0.00028404,"MEAN_MOTION_DDOT":0},{"OBJECT_NAME":"STARLINK-35928","OBJECT_ID":"2025-265N","EPOCH":"2026-03-28T05:57:50.079456","MEAN_MOTION":15.27595651,"ECCENTRICITY":0.0001366,"INCLINATION":42.9989,"RA_OF_ASC_NODE":172.9571,"ARG_OF_PERICENTER":255.5958,"MEAN_ANOMALY":104.4742,"EPHEMERIS_TYPE":0,"CLASSIFICATION_TYPE":"U","NORAD_CAT_ID":66528,"ELEMENT_SET_NO":999,"REV_AT_EPOCH":1995,"BSTAR":0.0013029,"MEAN_MOTION_DOT":0.00035781,"MEAN_MOTION_DDOT":0},{"OBJECT_NAME":"STARLINK-35933","OBJECT_ID":"2025-265P","EPOCH":"2026-03-28T16:16:27.267168","MEAN_MOTION":15.27623196,"ECCENTRICITY":0.0001701,"INCLINATION":43.0039,"RA_OF_ASC_NODE":171.032,"ARG_OF_PERICENTER":283.1662,"MEAN_ANOMALY":76.9,"EPHEMERIS_TYPE":0,"CLASSIFICATION_TYPE":"U","NORAD_CAT_ID":66529,"ELEMENT_SET_NO":999,"REV_AT_EPOCH":2001,"BSTAR":0.0011247,"MEAN_MOTION_DOT":0.00030858,"MEAN_MOTION_DDOT":0},{"OBJECT_NAME":"STARLINK-35961","OBJECT_ID":"2025-265Q","EPOCH":"2026-03-28T14:21:55.378368","MEAN_MOTION":15.27596457,"ECCENTRICITY":0.0001082,"INCLINATION":43.0027,"RA_OF_ASC_NODE":171.2952,"ARG_OF_PERICENTER":265.896,"MEAN_ANOMALY":94.1768,"EPHEMERIS_TYPE":0,"CLASSIFICATION_TYPE":"U","NORAD_CAT_ID":66530,"ELEMENT_SET_NO":999,"REV_AT_EPOCH":2000,"BSTAR":0.00080402,"MEAN_MOTION_DOT":0.0002194,"MEAN_MOTION_DDOT":0},{"OBJECT_NAME":"STARLINK-35960","OBJECT_ID":"2025-265R","EPOCH":"2026-03-28T13:30:07.024320","MEAN_MOTION":15.27631267,"ECCENTRICITY":0.000206,"INCLINATION":43.0034,"RA_OF_ASC_NODE":171.0218,"ARG_OF_PERICENTER":284.0518,"MEAN_ANOMALY":76.0105,"EPHEMERIS_TYPE":0,"CLASSIFICATION_TYPE":"U","NORAD_CAT_ID":66531,"ELEMENT_SET_NO":999,"REV_AT_EPOCH":2000,"BSTAR":0.001425,"MEAN_MOTION_DOT":0.00039221,"MEAN_MOTION_DDOT":0},{"OBJECT_NAME":"STARLINK-35914","OBJECT_ID":"2025-265S","EPOCH":"2026-03-28T14:23:46.287456","MEAN_MOTION":15.2761395,"ECCENTRICITY":0.0001247,"INCLINATION":43.0029,"RA_OF_ASC_NODE":171.302,"ARG_OF_PERICENTER":269.4502,"MEAN_ANOMALY":90.6207,"EPHEMERIS_TYPE":0,"CLASSIFICATION_TYPE":"U","NORAD_CAT_ID":66532,"ELEMENT_SET_NO":999,"REV_AT_EPOCH":2000,"BSTAR":0.0015649,"MEAN_MOTION_DOT":0.00043097,"MEAN_MOTION_DDOT":0},{"OBJECT_NAME":"STARLINK-35707","OBJECT_ID":"2025-265T","EPOCH":"2026-03-28T17:15:25.742880","MEAN_MOTION":15.2760583,"ECCENTRICITY":0.0001279,"INCLINATION":42.9973,"RA_OF_ASC_NODE":170.4726,"ARG_OF_PERICENTER":270.2917,"MEAN_ANOMALY":89.7788,"EPHEMERIS_TYPE":0,"CLASSIFICATION_TYPE":"U","NORAD_CAT_ID":66533,"ELEMENT_SET_NO":999,"REV_AT_EPOCH":2002,"BSTAR":0.00088943,"MEAN_MOTION_DOT":0.00024313,"MEAN_MOTION_DDOT":0}]
